NEXTSAT-1
1 43811U 18099BF  25334.92686423  .00004528  00000+0  30383-3 0  9999
2 43811  97.4377  19.4359 0011050 301.0045  59.0097 15.07271469382002